IRIDIUM 166             
1 43570U 18061B   24153.60910199 -.00000074  00000+0 -33603-4 0  9996
2 43570  86.3979   8.3242 0001846  92.7172 267.4235 14.34217525306539
IRIDIUM 158             
1 43571U 18061C   24153.57739302  .00000368  00000+0  12450-3 0  9998
2 43571  86.3984   8.3467 0002222  90.5265 269.6185 14.34219884306496
IRIDIUM 165             
1 43572U 18061D   24153.60275657  .00000338  00000+0  11370-3 0  9998
2 43572  86.3987   8.3683 0002275  92.8354 267.3102 14.34217690306523
IRIDIUM 155             
1 43573U 18061E   24153.56470373  .00000181  00000+0  57582-4 0  9998
2 43573  86.3982   8.2903 0001885  90.1091 270.0321 14.34218677306483
IRIDIUM 154             
1 43574U 18061F   24153.61544517 -.00000123  00000+0 -51072-4 0  9993
2 43574  86.3987   8.3659 0002360  84.6355 275.5110 14.34216590306543
IRIDIUM 163             
1 43575U 18061G   24153.59641492  .00000025  00000+0  18485-5 0  9992
2 43575  86.3985   8.3121 0002180  87.0036 273.1409 14.34216706306510
IRIDIUM 156             
1 43576U 18061H   24153.57104674  .00000047  00000+0  98492-5 0  9997
2 43576  86.3984   8.3295 0002150  93.0408 267.1034 14.34217802306503
IRIDIUM 164             
1 43577U 18061J   24153.62178763  .00000021  00000+0  49670-6 0  9991
2 43577  86.3984   8.3363 0002581  94.0763 266.0728 14.34218690306552
